NORAD_CAT_ID,OBJECT_NAME,OBJECT_TYPE,EPOCH,MEAN_MOTION,ECCENTRICITY,INCLINATION,RA_OF_ASC_NODE,ARG_OF_PERICENTER,MEAN_ANOMALY,BSTAR,MEAN_MOTION_DOT,MEAN_MOTION_DDOT,TLE_LINE0,TLE_LINE1,TLE_LINE2,SEMIMAJOR_AXIS,PERIOD,APOGEE,PERIGEE,DECAYED
52293.0,STARLINK-3771,PAYLOAD,2023-07-24 22:28:42,15.08845195,7.29e-05,53.2166,83.1365,119.8101,240.2964,4.6696e-06,-2.13e-06,0.0,0 STARLINK-3771,1 52293U 22041AJ  23205.93660112 -.00000213  00000-0  46696-5 0  9993,2 52293  53.2166  83.1365 0000729 119.8101 240.2964 15.08845195 69762,6917.865,95.437,540.234,539.225,0.0
52293.0,STARLINK-3771,PAYLOAD,2023-07-25 23:54:52,15.0883885,9.16e-05,53.2166,78.3811,83.5368,276.5728,-1.1085e-05,-4.64e-06,0.0,0 STARLINK-3771,1 52293U 22041AJ  23206.99644535 -.00000464  00000-0 -11085-4 0  9993,2 52293  53.2166  78.3811 0000916  83.5368 276.5728 15.08838850 69922,6917.884,95.438,540.383,539.115,0.0
52293.0,STARLINK-3771,PAYLOAD,2023-07-26 22:10:16,15.08845863,9.88e-05,53.2168,74.218,82.0201,278.0903,0.00015419,2.167e-05,0.0,0 STARLINK-3771,1 52293U 22041AJ  23207.92380082  .00002167  00000-0  15419-3 0  9995,2 52293  53.2168  74.2180 0000988  82.0201 278.0903 15.08845863 70068,6917.862,95.437,540.411,539.044,0.0
52293.0,STARLINK-3771,PAYLOAD,2023-07-27 01:21:01,15.08857161,9.45e-05,53.2165,73.6233,85.1736,274.9364,0.00024821,3.667e-05,0.0,0 STARLINK-3771,1 52293U 22041AJ  23208.05627195  .00003667  00000-0  24821-3 0  9992,2 52293  53.2165  73.6233 0000945  85.1736 274.9364 15.08857161 71305,6917.828,95.436,540.347,539.039,0.0
52293.0,STARLINK-3771,PAYLOAD,2023-07-27 07:42:36,15.0882909,9.34e-05,53.2169,72.4329,73.4754,286.6341,6.1818e-06,-1.89e-06,0.0,0 STARLINK-3771,1 52293U 22041AJ  23208.32125554 -.00000189  00000-0  61818-5 0  9990,2 52293  53.2169  72.4329 0000934  73.4754 286.6341 15.08829090 71349,6917.914,95.438,540.425,539.133,0.0
52293.0,STARLINK-3771,PAYLOAD,2023-07-27 22:01:05,15.08826725,0.0001113,53.217,69.7561,77.3481,282.7635,1.4669e-05,-5.4e-07,0.0,0 STARLINK-3771,1 52293U 22041AJ  23208.91742168 -.00000054  00000-0  14669-4 0  9993,2 52293  53.2170  69.7561 0001113  77.3481 282.7635 15.08826725 70218,6917.921,95.438,540.556,539.016,0.0
52293.0,STARLINK-3771,PAYLOAD,2023-07-28 01:11:51,15.08827275,0.000113,53.2166,69.1621,81.7743,278.3377,-8.7336e-05,-1.677e-05,0.0,0 STARLINK-3771,1 52293U 22041AJ  23209.04989691 -.00001677  00000-0 -87336-4 0  9996,2 52293  53.2166  69.1621 0001130  81.7743 278.3377 15.08827275 70230,6917.919,95.438,540.566,539.003,0.0
52293.0,STARLINK-3771,PAYLOAD,2023-07-28 17:05:42,15.08841703,0.0001083,53.2171,66.1908,96.5496,263.562,-7.4499e-05,-1.473e-05,0.0,0 STARLINK-3771,1 52293U 22041AJ  23209.71229202 -.00001473  00000-0 -74499-4 0  9995,2 52293  53.2171  66.1908 0001083  96.5496 263.5620 15.08841703 71552,6917.875,95.437,540.489,538.991,0.0
52293.0,STARLINK-3771,PAYLOAD,2023-07-29 18:31:52,15.08842251,0.0001017,53.2169,61.433,97.0149,263.0959,0.00025992,3.851e-05,0.0,0 STARLINK-3771,1 52293U 22041AJ  23210.77213511  .00003851  00000-0  25992-3 0  9992,2 52293  53.2169  61.4330 0001017  97.0149 263.0959 15.08842251 71711,6917.874,95.437,540.442,539.035,0.0
52293.0,STARLINK-3771,PAYLOAD,2023-07-30 18:22:39,15.08838374,0.0001235,53.2175,56.9695,81.7627,278.3506,7.1271e-06,-1.74e-06,0.0,0 STARLINK-3771,1 52293U 22041AJ  23211.76573761 -.00000174  00000-0  71271-5 0  9997,2 52293  53.2175  56.9695 0001235  81.7627 278.3506 15.08838374 71868,6917.885,95.438,540.605,538.896,0.0
52293.0,STARLINK-3771,PAYLOAD,2023-07-30 23:08:48,15.08847866,0.0001071,53.2176,56.0773,116.3146,243.7956,0.00011097,1.479e-05,0.0,0 STARLINK-3771,1 52293U 22041AJ  23211.96445217  .00001479  00000-0  11097-3 0  9999,2 52293  53.2176  56.0773 0001071 116.3146 243.7956 15.08847866 71890,6917.856,95.437,540.462,538.98,0.0
52293.0,STARLINK-3771,PAYLOAD,2023-07-31 07:05:44,15.08841379,9.28e-05,53.2157,54.5913,98.4523,261.6574,8.1826e-05,1.015e-05,0.0,0 STARLINK-3771,1 52293U 22041AJ  23212.29565623  .00001015  00000-0  81826-4 0  9994,2 52293  53.2157  54.5913 0000928  98.4523 261.6574 15.08841379 71941,6917.876,95.437,540.383,539.099,0.0
52293.0,STARLINK-3771,PAYLOAD,2023-08-01 19:39:36,15.08842439,9.47e-05,53.2159,47.7524,77.0199,283.0899,9.3086e-05,1.194e-05,0.0,0 STARLINK-3771,1 52293U 22041AJ  23213.81917683  .00001194  00000-0  93086-4 0  9999,2 52293  53.2159  47.7524 0000947  77.0199 283.0899 15.08842439 72170,6917.873,95.437,540.393,539.083,0.0
52293.0,STARLINK-3771,PAYLOAD,2023-08-02 22:41:10,15.08844894,9.66e-05,53.2162,42.6957,103.2244,256.8856,7.6637e-05,9.32e-06,0.0,0 STARLINK-3771,1 52293U 22041AJ  23214.94525556  .00000932  00000-0  76637-4 0  9990,2 52293  53.2162  42.6957 0000966 103.2244 256.8856 15.08844894 72349,6917.865,95.437,540.399,539.062,0.0
52293.0,STARLINK-3771,PAYLOAD,2023-08-04 09:39:39,15.08837601,0.000114,53.2163,36.1551,123.6123,236.4978,4.1242e-06,-2.22e-06,0.0,0 STARLINK-3771,1 52293U 22041AJ  23216.40253897 -.00000222  00000-0  41242-5 0  9997,2 52293  53.2163  36.1551 0001140 123.6123 236.4978 15.08837601 72566,6917.888,95.438,540.541,538.964,0.0
52293.0,STARLINK-3771,PAYLOAD,2023-08-05 19:02:44,15.08855744,9.98e-05,53.2163,29.9091,90.3345,269.7762,0.00035176,5.317e-05,0.0,0 STARLINK-3771,1 52293U 22041AJ  23217.79357194  .00005317  00000-0  35176-3 0  9991,2 52293  53.2163  29.9091 0000998  90.3345 269.7762 15.08855744 72772,6917.832,95.437,540.388,539.007,0.0
52293.0,STARLINK-3771,PAYLOAD,2023-08-06 04:35:03,15.08845408,0.0001129,53.2181,28.1243,74.6946,285.4171,0.0001393,1.93e-05,0.0,0 STARLINK-3771,1 52293U 22041AJ  23218.19101455  .00001930  00000-0  13930-3 0  9994,2 52293  53.2181  28.1243 0001129  74.6946 285.4171 15.08845408 72833,6917.864,95.437,540.51,538.948,0.0
52293.0,STARLINK-3771,PAYLOAD,2023-08-06 17:18:09,15.08819069,9.58e-05,53.2161,25.7467,70.6676,289.4419,-0.00029121,-4.917e-05,0.0,0 STARLINK-3771,1 52293U 22041AJ  23218.72094840 -.00004917  00000-0 -29121-3 0  9991,2 52293  53.2161  25.7467 0000958  70.6676 289.4419 15.08819069 72919,6917.944,95.439,540.472,539.147,0.0
52293.0,STARLINK-3771,PAYLOAD,2023-08-07 17:08:58,15.08840626,0.0001049,53.2168,21.2871,59.3319,300.7777,0.001239,0.00019486,0.0,0 STARLINK-3771,1 52293U 22041AJ  23219.71456049  .00019486  00000-0  12390-2 0  9998,2 52293  53.2168  21.2871 0001049  59.3319 300.7777 15.08840626 73060,6917.878,95.438,540.469,539.018,0.0
52293.0,STARLINK-3771,PAYLOAD,2023-08-08 21:45:53,15.08882122,0.0001089,53.217,15.9337,57.5624,302.5474,0.0012148,0.00019121,0.0,0 STARLINK-3771,1 52293U 22041AJ  23220.90686393  .00019121  00000-0  12148-2 0  9995,2 52293  53.2170  15.9337 0001089  57.5624 302.5474 15.08882122 73244,6917.752,95.435,540.37,538.863,0.0
52293.0,STARLINK-3771,PAYLOAD,2023-08-09 10:28:58,15.08852112,0.0001009,53.2168,13.5544,65.4577,294.652,9.0761e-05,1.157e-05,0.0,0 STARLINK-3771,1 52293U 22041AJ  23221.43678537  .00001157  00000-0  90761-4 0  9994,2 52293  53.2168  13.5544 0001009  65.4577 294.6520 15.08852112 73320,6917.843,95.437,540.406,539.01,0.0
52293.0,STARLINK-3771,PAYLOAD,2023-08-10 19:52:02,15.08878125,9.01e-05,53.2174,7.3088,64.6749,295.4337,0.00093797,0.00014687,0.0,0 STARLINK-3771,1 52293U 22041AJ  23222.82780873  .00014687  00000-0  93797-3 0  9998,2 52293  53.2174   7.3088 0000901  64.6749 295.4337 15.08878125 73533,6917.764,95.435,540.252,539.006,0.0
52293.0,STARLINK-3771,PAYLOAD,2023-08-11 02:13:35,15.08833779,6.06e-05,53.2171,6.122,129.5771,230.5275,-0.00091208,-0.00014771,0.0,0 STARLINK-3771,1 52293U 22041AJ  23223.09277246 -.00014771  00000-0 -91208-3 0  9994,2 52293  53.2171   6.1220 0000606 129.5771 230.5275 15.08833779 73574,6917.899,95.438,540.184,539.345,0.0
52293.0,STARLINK-3771,PAYLOAD,2023-08-11 16:32:04,15.0883405,7.88e-05,53.2174,3.4456,93.8713,266.2369,5.9048e-05,6.52e-06,0.0,0 STARLINK-3771,1 52293U 22041AJ  23223.68893861  .00000652  00000-0  59048-4 0  9994,2 52293  53.2174   3.4456 0000788  93.8713 266.2369 15.08834050 73661,6917.899,95.438,540.309,539.218,0.0
52293.0,STARLINK-3771,PAYLOAD,2023-08-12 17:58:15,15.08837716,8.74e-05,53.2178,358.6889,99.4419,260.6672,0.00056762,8.757e-05,0.0,0 STARLINK-3771,1 52293U 22041AJ  23224.74878869  .00008757  00000-0  56762-3 0  9996,2 52293  53.2178 358.6889 0000874  99.4419 260.6672 15.08837716 73826,6917.887,95.438,540.357,539.148,0.0
52293.0,STARLINK-3771,PAYLOAD,2023-08-13 16:13:39,15.08846909,8.51e-05,53.2168,354.5248,81.5184,278.5904,0.00048521,7.444e-05,0.0,0 STARLINK-3771,1 52293U 22041AJ  23225.67614892  .00007444  00000-0  48521-3 0  9999,2 52293  53.2168 354.5248 0000851  81.5184 278.5904 15.08846909 73960,6917.859,95.437,540.313,539.136,0.0
52293.0,STARLINK-3771,PAYLOAD,2023-08-14 01:45:58,15.08832637,7.48e-05,53.2163,352.7387,108.8327,251.2747,-0.00014052,-2.523e-05,0.0,0 STARLINK-3771,1 52293U 22041AJ  23226.07358969 -.00002523  00000-0 -14052-3 0  9991,2 52293  53.2163 352.7387 0000748 108.8327 251.2747 15.08832637 74020,6917.903,95.438,540.285,539.25,0.0
52293.0,STARLINK-3771,PAYLOAD,2023-08-15 01:36:44,15.08838953,4.12e-05,53.2173,348.2793,258.5187,101.5759,0.00012036,1.629e-05,0.0,0 STARLINK-3771,1 52293U 22041AJ  23227.06718519  .00001629  00000-0  12036-3 0  9996,2 52293  53.2173 348.2793 0000412 258.5187 101.5759 15.08838953 74170,6917.884,95.438,540.034,539.464,0.0
52293.0,STARLINK-3771,PAYLOAD,2023-08-16 10:59:51,15.08846797,0.0001069,53.2146,342.034,95.4646,264.6468,0.0011746,0.00018459,0.0,0 STARLINK-3771,1 52293U 22041AJ  23228.45823298  .00018459  00000-0  11746-2 0  9996,2 52293  53.2146 342.0340 0001069  95.4646 264.6468 15.08846797 74383,6917.86,95.437,540.464,538.985,0.0
52293.0,STARLINK-3771,PAYLOAD,2023-08-17 10:50:38,15.08851223,7.66e-05,53.217,337.5752,77.0823,283.0254,0.00085044,0.00013277,0.0,0 STARLINK-3771,1 52293U 22041AJ  23229.45183209  .00013277  00000-0  85044-3 0  9994,2 52293  53.2170 337.5752 0000766  77.0823 283.0254 15.08851223 74537,6917.846,95.437,540.241,539.181,0.0
